{"fetched_at":"2026-03-29T02:12:04Z","count":15717,"tles":[{"name":"BEIDOU-2 M3 (C11)","line1":"1 38250U 12018A   26086.03420255 -.00000035  00000+0  00000+0 0  9990","line2":"2 38250  55.8269 307.6446 0020428 279.3138  80.4965  1.86229764 94419","category":"GPS"}]}